[{"OBJECT_NAME":"FENGYUN 1C DEB","OBJECT_ID":"1999-025DGB","EPOCH":"2026-03-01T06:00:31.565376","MEAN_MOTION":14.53124516,"ECCENTRICITY":0.0033313,"INCLINATION":98.6083,"RA_OF_ASC_NODE":165.6247,"ARG_OF_PERICENTER":169.0782,"MEAN_ANOMALY":191.1144,"EPHEMERIS_TYPE":0,"CLASSIFICATION_TYPE":"U","NORAD_CAT_ID":33690,"ELEMENT_SET_NO":999,"REV_AT_EPOCH":94359,"BSTAR":0.0025781,"MEAN_MOTION_DOT":0.0001071,"MEAN_MOTION_DDOT":0},{"OBJECT_NAME":"FENGYUN 1C DEB","OBJECT_ID":"1999-025DGE","EPOCH":"2026-02-27T18:32:41.019936","MEAN_MOTION":13.71582406,"ECCENTRICITY":0.02262912,"INCLINATION":99.2233,"RA_OF_ASC_NODE":238.5197,"ARG_OF_PERICENTER":157.4289,"MEAN_ANOMALY":203.7005,"EPHEMERIS_TYPE":0,"CLASSIFICATION_TYPE":"U","NORAD_CAT_ID":33693,"ELEMENT_SET_NO":999,"REV_AT_EPOCH":89287,"BSTAR":0.001055314,"MEAN_MOTION_DOT":1.1e-5,"MEAN_MOTION_DDOT":0},{"OBJECT_NAME":"FENGYUN 1C DEB","OBJECT_ID":"1999-025DGK","EPOCH":"2026-03-02T20:49:26.682816","MEAN_MOTION":14.56031855,"ECCENTRICITY":0.0137202,"INCLINATION":99.6335,"RA_OF_ASC_NODE":39.1565,"ARG_OF_PERICENTER":340.6819,"MEAN_ANOMALY":18.9202,"EPHEMERIS_TYPE":0,"CLASSIFICATION_TYPE":"U","NORAD_CAT_ID":33698,"ELEMENT_SET_NO":999,"REV_AT_EPOCH":96802,"BSTAR":0.00058578,"MEAN_MOTION_DOT":2.862e-5,"MEAN_MOTION_DDOT":0},{"OBJECT_NAME":"FENGYUN 1C DEB","OBJECT_ID":"1999-025DGN","EPOCH":"2026-03-01T09:40:45.128640","MEAN_MOTION":14.02789574,"ECCENTRICITY":0.01342346,"INCLINATION":98.6706,"RA_OF_ASC_NODE":16.0026,"ARG_OF_PERICENTER":328.8352,"MEAN_ANOMALY":30.4904,"EPHEMERIS_TYPE":0,"CLASSIFICATION_TYPE":"U","NORAD_CAT_ID":33701,"ELEMENT_SET_NO":999,"REV_AT_EPOCH":91608,"BSTAR":0.0017263217,"MEAN_MOTION_DOT":2.849e-5,"MEAN_MOTION_DDOT":0},{"OBJECT_NAME":"FENGYUN 1C DEB","OBJECT_ID":"1999-025DGX","EPOCH":"2026-03-02T12:13:56.604288","MEAN_MOTION":14.11962083,"ECCENTRICITY":0.00536731,"INCLINATION":98.9754,"RA_OF_ASC_NODE":165.4209,"ARG_OF_PERICENTER":280.6123,"MEAN_ANOMALY":78.9005,"EPHEMERIS_TYPE":0,"CLASSIFICATION_TYPE":"U","NORAD_CAT_ID":33710,"ELEMENT_SET_NO":999,"REV_AT_EPOCH":68782,"BSTAR":0.0010105855,"MEAN_MOTION_DOT":1.828e-5,"MEAN_MOTION_DDOT":0},{"OBJECT_NAME":"FENGYUN 1C DEB","OBJECT_ID":"1999-025DGY","EPOCH":"2026-03-04T02:25:58.603872","MEAN_MOTION":14.01095705,"ECCENTRICITY":0.0098144,"INCLINATION":99.1699,"RA_OF_ASC_NODE":121.9575,"ARG_OF_PERICENTER":182.4724,"MEAN_ANOMALY":209.5838,"EPHEMERIS_TYPE":0,"CLASSIFICATION_TYPE":"U","NORAD_CAT_ID":33711,"ELEMENT_SET_NO":999,"REV_AT_EPOCH":93071,"BSTAR":0.00096875,"MEAN_MOTION_DOT":1.471e-5,"MEAN_MOTION_DDOT":0},{"OBJECT_NAME":"FENGYUN 1C DEB","OBJECT_ID":"1999-025DHD","EPOCH":"2026-02-28T01:44:57.783264","MEAN_MOTION":14.32753165,"ECCENTRICITY":0.00941501,"INCLINATION":98.879,"RA_OF_ASC_NODE":351.5226,"ARG_OF_PERICENTER":130.4383,"MEAN_ANOMALY":230.5059,"EPHEMERIS_TYPE":0,"CLASSIFICATION_TYPE":"U","NORAD_CAT_ID":33716,"ELEMENT_SET_NO":999,"REV_AT_EPOCH":66265,"BSTAR":0.0001307859,"MEAN_MOTION_DOT":3.28e-6,"MEAN_MOTION_DDOT":0},{"OBJECT_NAME":"FENGYUN 1C DEB","OBJECT_ID":"1999-025DHF","EPOCH":"2026-03-02T00:43:58.829664","MEAN_MOTION":14.08589093,"ECCENTRICITY":0.00997979,"INCLINATION":99.6536,"RA_OF_ASC_NODE":158.1794,"ARG_OF_PERICENTER":104.3244,"MEAN_ANOMALY":256.9028,"EPHEMERIS_TYPE":0,"CLASSIFICATION_TYPE":"U","NORAD_CAT_ID":33718,"ELEMENT_SET_NO":999,"REV_AT_EPOCH":70302,"BSTAR":0.0014280329,"MEAN_MOTION_DOT":2.521e-5,"MEAN_MOTION_DDOT":0},{"OBJECT_NAME":"FENGYUN 1C DEB","OBJECT_ID":"1999-025DHG","EPOCH":"2026-03-04T03:51:15.593760","MEAN_MOTION":14.23848103,"ECCENTRICITY":0.0031455,"INCLINATION":98.7631,"RA_OF_ASC_NODE":127.8735,"ARG_OF_PERICENTER":201.5597,"MEAN_ANOMALY":183.7957,"EPHEMERIS_TYPE":0,"CLASSIFICATION_TYPE":"U","NORAD_CAT_ID":33719,"ELEMENT_SET_NO":999,"REV_AT_EPOCH":93172,"BSTAR":0.0012684,"MEAN_MOTION_DOT":2.875e-5,"MEAN_MOTION_DDOT":0},{"OBJECT_NAME":"FENGYUN 1C DEB","OBJECT_ID":"1999-025DHK","EPOCH":"2026-03-04T00:26:21.168384","MEAN_MOTION":14.21622008,"ECCENTRICITY":0.0158148,"INCLINATION":98.572,"RA_OF_ASC_NODE":80.0694,"ARG_OF_PERICENTER":16.5293,"MEAN_ANOMALY":344.0958,"EPHEMERIS_TYPE":0,"CLASSIFICATION_TYPE":"U","NORAD_CAT_ID":33722,"ELEMENT_SET_NO":999,"REV_AT_EPOCH":93302,"BSTAR":0.00083258,"MEAN_MOTION_DOT":2.031e-5,"MEAN_MOTION_DDOT":0},{"OBJECT_NAME":"FENGYUN 1C DEB","OBJECT_ID":"1999-025DHL","EPOCH":"2026-03-03T04:14:47.842368","MEAN_MOTION":14.14086579,"ECCENTRICITY":0.01005215,"INCLINATION":99.1461,"RA_OF_ASC_NODE":149.6312,"ARG_OF_PERICENTER":106.1649,"MEAN_ANOMALY":285.5668,"EPHEMERIS_TYPE":0,"CLASSIFICATION_TYPE":"U","NORAD_CAT_ID":33723,"ELEMENT_SET_NO":999,"REV_AT_EPOCH":64760,"BSTAR":0.0022609342,"MEAN_MOTION_DOT":4.472e-5,"MEAN_MOTION_DDOT":0},{"OBJECT_NAME":"FENGYUN 1C DEB","OBJECT_ID":"1999-025DHM","EPOCH":"2026-03-02T07:40:26.692032","MEAN_MOTION":14.19824899,"ECCENTRICITY":0.00263866,"INCLINATION":98.6032,"RA_OF_ASC_NODE":74.3833,"ARG_OF_PERICENTER":315.1821,"MEAN_ANOMALY":54.9873,"EPHEMERIS_TYPE":0,"CLASSIFICATION_TYPE":"U","NORAD_CAT_ID":33724,"ELEMENT_SET_NO":999,"REV_AT_EPOCH":95091,"BSTAR":0.00051509741,"MEAN_MOTION_DOT":1.053e-5,"MEAN_MOTION_DDOT":0},{"OBJECT_NAME":"FENGYUN 1C DEB","OBJECT_ID":"1999-025DHP","EPOCH":"2026-03-03T20:28:01.790400","MEAN_MOTION":14.14502846,"ECCENTRICITY":0.0192926,"INCLINATION":98.6434,"RA_OF_ASC_NODE":189.4988,"ARG_OF_PERICENTER":158.4745,"MEAN_ANOMALY":354.2712,"EPHEMERIS_TYPE":0,"CLASSIFICATION_TYPE":"U","NORAD_CAT_ID":33726,"ELEMENT_SET_NO":999,"REV_AT_EPOCH":93078,"BSTAR":0.0007951,"MEAN_MOTION_DOT":1.782e-5,"MEAN_MOTION_DDOT":0},{"OBJECT_NAME":"FENGYUN 1C DEB","OBJECT_ID":"1999-025DHR","EPOCH":"2026-03-02T15:20:32.152992","MEAN_MOTION":14.93697165,"ECCENTRICITY":0.0144702,"INCLINATION":98.9655,"RA_OF_ASC_NODE":133.7271,"ARG_OF_PERICENTER":318.6669,"MEAN_ANOMALY":40.3666,"EPHEMERIS_TYPE":0,"CLASSIFICATION_TYPE":"U","NORAD_CAT_ID":33728,"ELEMENT_SET_NO":999,"REV_AT_EPOCH":99492,"BSTAR":0.0004211,"MEAN_MOTION_DOT":5.39e-5,"MEAN_MOTION_DDOT":0},{"OBJECT_NAME":"FENGYUN 1C DEB","OBJECT_ID":"1999-025DHT","EPOCH":"2026-02-20T00:08:31.716096","MEAN_MOTION":14.64909094,"ECCENTRICITY":0.00403145,"INCLINATION":99.0449,"RA_OF_ASC_NODE":120.5641,"ARG_OF_PERICENTER":158.1247,"MEAN_ANOMALY":202.1686,"EPHEMERIS_TYPE":0,"CLASSIFICATION_TYPE":"U","NORAD_CAT_ID":33730,"ELEMENT_SET_NO":999,"REV_AT_EPOCH":96693,"BSTAR":0.0013183939,"MEAN_MOTION_DOT":7.082e-5,"MEAN_MOTION_DDOT":0},{"OBJECT_NAME":"FENGYUN 1C DEB","OBJECT_ID":"1999-025DHU","EPOCH":"2026-03-04T00:55:00.480000","MEAN_MOTION":13.95780946,"ECCENTRICITY":0.0129057,"INCLINATION":99.4371,"RA_OF_ASC_NODE":92.234,"ARG_OF_PERICENTER":194.4792,"MEAN_ANOMALY":165.2657,"EPHEMERIS_TYPE":0,"CLASSIFICATION_TYPE":"U","NORAD_CAT_ID":33731,"ELEMENT_SET_NO":999,"REV_AT_EPOCH":91583,"BSTAR":0.0015761,"MEAN_MOTION_DOT":2.26e-5,"MEAN_MOTION_DDOT":0}]
