FENGYUN 1C DEB          
1 33690U 99025DGB 26060.25036534  .00010710  00000+0  25781-2 0  9991
2 33690  98.6083 165.6247 0033313 169.0782 191.1144 14.53124516943597
FENGYUN 1C DEB          
1 33693U 99025DGE 26058.77269699  .00001100  00000+0  10553-2 0  9992
2 33693  99.2233 238.5197 0226291 157.4289 203.7005 13.71582406892875
FENGYUN 1C DEB          
1 33698U 99025DGK 26061.86766994  .00002862  00000+0  58578-3 0  9997
2 33698  99.6335  39.1565 0137202 340.6819  18.9202 14.56031855968026
FENGYUN 1C DEB          
1 33701U 99025DGN 26060.40330010  .00002849  00000+0  17263-2 0  9997
2 33701  98.6706  16.0026 0134234 328.8352  30.4904 14.02789574916086
FENGYUN 1C DEB          
1 33710U 99025DGX 26061.50968292  .00001828  00000+0  10106-2 0  9993
2 33710  98.9754 165.4209 0053673 280.6123  78.9005 14.11962083687826
FENGYUN 1C DEB          
1 33711U 99025DGY 26063.10137273  .00001471  00000+0  96875-3 0  9991
2 33711  99.1699 121.9575 0098144 182.4724 209.5838 14.01095705930711
FENGYUN 1C DEB          
1 33716U 99025DHD 26059.07289101  .00000328  00000+0  13079-3 0  9990
2 33716  98.8790 351.5226 0094150 130.4383 230.5059 14.32753165662654
FENGYUN 1C DEB          
1 33718U 99025DHF 26061.03054201  .00002521  00000+0  14280-2 0  9993
2 33718  99.6536 158.1794 0099797 104.3244 256.9028 14.08589093703027
FENGYUN 1C DEB          
1 33719U 99025DHG 26063.16059715  .00002875  00000+0  12684-2 0  9993
2 33719  98.7631 127.8735 0031455 201.5597 183.7957 14.23848103931725
FENGYUN 1C DEB          
1 33722U 99025DHK 26063.01830056  .00002031  00000+0  83258-3 0  9996
2 33722  98.5720  80.0694 0158148  16.5293 344.0958 14.21622008933026
FENGYUN 1C DEB          
1 33723U 99025DHL 26062.17694262  .00004472  00000+0  22609-2 0  9993
2 33723  99.1461 149.6312 0100521 106.1649 285.5668 14.14086579647600
FENGYUN 1C DEB          
1 33724U 99025DHM 26061.31975338  .00001053  00000+0  51510-3 0  9991
2 33724  98.6032  74.3833 0026386 315.1821  54.9873 14.19824899950918
FENGYUN 1C DEB          
1 33726U 99025DHP 26062.85279850  .00001782  00000+0  79510-3 0  9998
2 33726  98.6434 189.4988 0192926 158.4745 354.2712 14.14502846930783
FENGYUN 1C DEB          
1 33728U 99025DHR 26061.63926103  .00005390  00000+0  42110-3 0  9990
2 33728  98.9655 133.7271 0144702 318.6669  40.3666 14.93697165994927
FENGYUN 1C DEB          
1 33730U 99025DHT 26051.00592264  .00007082  00000+0  13184-2 0  9998
2 33730  99.0449 120.5641 0040314 158.1247 202.1686 14.64909094966936
FENGYUN 1C DEB          
1 33731U 99025DHU 26063.03820000  .00002260  00000+0  15761-2 0  9993
2 33731  99.4371  92.2340 0129057 194.4792 165.2657 13.95780946915832
